KUIPER-00027            
1 63740U 25088S   25273.72778634  .00009507  00000+0  12747-2 0  9999
2 63740  51.9005  82.6919 0004468   5.8921 354.2093 14.79918007 23933
KUIPER-00028            
1 63741U 25088T   25276.00003472  .00001143  00000+0  18222-3 0  9998
2 63741  51.8991  70.5823 0004508  36.9766 128.6193 14.79150121  5359
KUIPER-00029            
1 63742U 25088U   25276.00003472 -.00004468  00000+0 -55831-3 0  9991
2 63742  51.9010  68.6393 0008121 336.4662 257.8129 14.79829581  4931
KUIPER-00030            
1 63743U 25088V   25275.89444166  .00006477  00000+0  87377-3 0  9997
2 63743  51.8990  88.3032 0013498 271.1121  88.8295 14.80087897 24267
KUIPER-00031            
1 63744U 25088W   25275.77395428  .00007314  00000+0  98698-3 0  9990
2 63744  51.8987  74.9121 0003105 297.1677  62.8969 14.79949269 24158
KUIPER-00032            
1 63745U 25088X   25275.73760637  .00029039  00000+0  96999-3 0  9995
2 63745  51.8731  63.9867 0004714 277.2583  82.7865 15.30784478 25304
KUIPER-00033            
1 63746U 25088Y   25273.91853504  .00007779  00000+0  10499-2 0  9997
2 63746  51.8986 113.1014 0004178  31.5093 328.6119 14.79867367 23943
KUIPER-00034            
1 63747U 25088Z   25276.00003472 -.00960152  00000+0 -13124+0 0  9992
2 63747  51.9254  66.1781 0001376 297.6307 259.9015 14.81279171  5136
