<?xml version="1.0" encoding="UTF-8"?>
<ndm xmlns:xsi="http://www.w3.org/2001/XMLSchema-instance" xsi:noNamespaceSchemaLocation="https://sanaregistry.org/r/ndmxml_unqualified/ndmxml-2.0.0-master-2.0.xsd">
<omm id="CCSDS_OMM_VERS" version="2.0">
<header><CREATION_DATE/><ORIGINATOR/></header><body><segment><metadata><OBJECT_NAME>KUIPER-00027</OBJECT_NAME><OBJECT_ID>2025-088S</OBJECT_ID><CENTER_NAME>EARTH</CENTER_NAME><REF_FRAME>TEME</REF_FRAME><TIME_SYSTEM>UTC</TIME_SYSTEM><MEAN_ELEMENT_THEORY>SGP4</MEAN_ELEMENT_THEORY></metadata><data><meanElements><EPOCH>2025-09-30T17:28:00.739776</EPOCH><MEAN_MOTION>14.79918007</MEAN_MOTION><ECCENTRICITY>.00044681</ECCENTRICITY><INCLINATION>51.9005</INCLINATION><RA_OF_ASC_NODE>82.6919</RA_OF_ASC_NODE><ARG_OF_PERICENTER>5.8921</ARG_OF_PERICENTER><MEAN_ANOMALY>354.2093</MEAN_ANOMALY></meanElements><tleParameters><EPHEMERIS_TYPE>0</EPHEMERIS_TYPE><CLASSIFICATION_TYPE>U</CLASSIFICATION_TYPE><NORAD_CAT_ID>63740</NORAD_CAT_ID><ELEMENT_SET_NO>999</ELEMENT_SET_NO><REV_AT_EPOCH>2393</REV_AT_EPOCH><BSTAR>.12747481E-2</BSTAR><MEAN_MOTION_DOT>.9507E-4</MEAN_MOTION_DOT><MEAN_MOTION_DDOT>0</MEAN_MOTION_DDOT></tleParameters></data></segment></body></omm>
<omm id="CCSDS_OMM_VERS" version="2.0">
<header><CREATION_DATE/><ORIGINATOR/></header><body><segment><metadata><OBJECT_NAME>KUIPER-00028</OBJECT_NAME><OBJECT_ID>2025-088T</OBJECT_ID><CENTER_NAME>EARTH</CENTER_NAME><REF_FRAME>TEME</REF_FRAME><TIME_SYSTEM>UTC</TIME_SYSTEM><MEAN_ELEMENT_THEORY>SGP4</MEAN_ELEMENT_THEORY></metadata><data><meanElements><EPOCH>2025-10-03T00:00:02.999808</EPOCH><MEAN_MOTION>14.79150121</MEAN_MOTION><ECCENTRICITY>.00045087</ECCENTRICITY><INCLINATION>51.8991</INCLINATION><RA_OF_ASC_NODE>70.5823</RA_OF_ASC_NODE><ARG_OF_PERICENTER>36.9766</ARG_OF_PERICENTER><MEAN_ANOMALY>128.6193</MEAN_ANOMALY></meanElements><tleParameters><EPHEMERIS_TYPE>0</EPHEMERIS_TYPE><CLASSIFICATION_TYPE>U</CLASSIFICATION_TYPE><NORAD_CAT_ID>63741</NORAD_CAT_ID><ELEMENT_SET_NO>999</ELEMENT_SET_NO><REV_AT_EPOCH>535</REV_AT_EPOCH><BSTAR>.18222487E-3</BSTAR><MEAN_MOTION_DOT>.1143E-4</MEAN_MOTION_DOT><MEAN_MOTION_DDOT>0</MEAN_MOTION_DDOT></tleParameters></data></segment></body></omm>
<omm id="CCSDS_OMM_VERS" version="2.0">
<header><CREATION_DATE/><ORIGINATOR/></header><body><segment><metadata><OBJECT_NAME>KUIPER-00029</OBJECT_NAME><OBJECT_ID>2025-088U</OBJECT_ID><CENTER_NAME>EARTH</CENTER_NAME><REF_FRAME>TEME</REF_FRAME><TIME_SYSTEM>UTC</TIME_SYSTEM><MEAN_ELEMENT_THEORY>SGP4</MEAN_ELEMENT_THEORY></metadata><data><meanElements><EPOCH>2025-10-03T00:00:02.999808</EPOCH><MEAN_MOTION>14.79829581</MEAN_MOTION><ECCENTRICITY>.00081219</ECCENTRICITY><INCLINATION>51.9010</INCLINATION><RA_OF_ASC_NODE>68.6393</RA_OF_ASC_NODE><ARG_OF_PERICENTER>336.4662</ARG_OF_PERICENTER><MEAN_ANOMALY>257.8129</MEAN_ANOMALY></meanElements><tleParameters><EPHEMERIS_TYPE>0</EPHEMERIS_TYPE><CLASSIFICATION_TYPE>U</CLASSIFICATION_TYPE><NORAD_CAT_ID>63742</NORAD_CAT_ID><ELEMENT_SET_NO>999</ELEMENT_SET_NO><REV_AT_EPOCH>493</REV_AT_EPOCH><BSTAR>-.55831314E-3</BSTAR><MEAN_MOTION_DOT>-.4468E-4</MEAN_MOTION_DOT><MEAN_MOTION_DDOT>0</MEAN_MOTION_DDOT></tleParameters></data></segment></body></omm>
<omm id="CCSDS_OMM_VERS" version="2.0">
<header><CREATION_DATE/><ORIGINATOR/></header><body><segment><metadata><OBJECT_NAME>KUIPER-00030</OBJECT_NAME><OBJECT_ID>2025-088V</OBJECT_ID><CENTER_NAME>EARTH</CENTER_NAME><REF_FRAME>TEME</REF_FRAME><TIME_SYSTEM>UTC</TIME_SYSTEM><MEAN_ELEMENT_THEORY>SGP4</MEAN_ELEMENT_THEORY></metadata><data><meanElements><EPOCH>2025-10-02T21:27:59.759424</EPOCH><MEAN_MOTION>14.80087897</MEAN_MOTION><ECCENTRICITY>.00134985</ECCENTRICITY><INCLINATION>51.8990</INCLINATION><RA_OF_ASC_NODE>88.3032</RA_OF_ASC_NODE><ARG_OF_PERICENTER>271.1121</ARG_OF_PERICENTER><MEAN_ANOMALY>88.8295</MEAN_ANOMALY></meanElements><tleParameters><EPHEMERIS_TYPE>0</EPHEMERIS_TYPE><CLASSIFICATION_TYPE>U</CLASSIFICATION_TYPE><NORAD_CAT_ID>63743</NORAD_CAT_ID><ELEMENT_SET_NO>999</ELEMENT_SET_NO><REV_AT_EPOCH>2426</REV_AT_EPOCH><BSTAR>.87376558E-3</BSTAR><MEAN_MOTION_DOT>.6477E-4</MEAN_MOTION_DOT><MEAN_MOTION_DDOT>0</MEAN_MOTION_DDOT></tleParameters></data></segment></body></omm>
<omm id="CCSDS_OMM_VERS" version="2.0">
<header><CREATION_DATE/><ORIGINATOR/></header><body><segment><metadata><OBJECT_NAME>KUIPER-00031</OBJECT_NAME><OBJECT_ID>2025-088W</OBJECT_ID><CENTER_NAME>EARTH</CENTER_NAME><REF_FRAME>TEME</REF_FRAME><TIME_SYSTEM>UTC</TIME_SYSTEM><MEAN_ELEMENT_THEORY>SGP4</MEAN_ELEMENT_THEORY></metadata><data><meanElements><EPOCH>2025-10-02T18:34:29.649792</EPOCH><MEAN_MOTION>14.79949269</MEAN_MOTION><ECCENTRICITY>.00031055</ECCENTRICITY><INCLINATION>51.8987</INCLINATION><RA_OF_ASC_NODE>74.9121</RA_OF_ASC_NODE><ARG_OF_PERICENTER>297.1677</ARG_OF_PERICENTER><MEAN_ANOMALY>62.8969</MEAN_ANOMALY></meanElements><tleParameters><EPHEMERIS_TYPE>0</EPHEMERIS_TYPE><CLASSIFICATION_TYPE>U</CLASSIFICATION_TYPE><NORAD_CAT_ID>63744</NORAD_CAT_ID><ELEMENT_SET_NO>999</ELEMENT_SET_NO><REV_AT_EPOCH>2415</REV_AT_EPOCH><BSTAR>.98697734E-3</BSTAR><MEAN_MOTION_DOT>.7314E-4</MEAN_MOTION_DOT><MEAN_MOTION_DDOT>0</MEAN_MOTION_DDOT></tleParameters></data></segment></body></omm>
<omm id="CCSDS_OMM_VERS" version="2.0">
<header><CREATION_DATE/><ORIGINATOR/></header><body><segment><metadata><OBJECT_NAME>KUIPER-00032</OBJECT_NAME><OBJECT_ID>2025-088X</OBJECT_ID><CENTER_NAME>EARTH</CENTER_NAME><REF_FRAME>TEME</REF_FRAME><TIME_SYSTEM>UTC</TIME_SYSTEM><MEAN_ELEMENT_THEORY>SGP4</MEAN_ELEMENT_THEORY></metadata><data><meanElements><EPOCH>2025-10-02T17:42:09.190368</EPOCH><MEAN_MOTION>15.30784478</MEAN_MOTION><ECCENTRICITY>.00047147</ECCENTRICITY><INCLINATION>51.8731</INCLINATION><RA_OF_ASC_NODE>63.9867</RA_OF_ASC_NODE><ARG_OF_PERICENTER>277.2583</ARG_OF_PERICENTER><MEAN_ANOMALY>82.7865</MEAN_ANOMALY></meanElements><tleParameters><EPHEMERIS_TYPE>0</EPHEMERIS_TYPE><CLASSIFICATION_TYPE>U</CLASSIFICATION_TYPE><NORAD_CAT_ID>63745</NORAD_CAT_ID><ELEMENT_SET_NO>999</ELEMENT_SET_NO><REV_AT_EPOCH>2530</REV_AT_EPOCH><BSTAR>.96998895E-3</BSTAR><MEAN_MOTION_DOT>.29039E-3</MEAN_MOTION_DOT><MEAN_MOTION_DDOT>0</MEAN_MOTION_DDOT></tleParameters></data></segment></body></omm>
<omm id="CCSDS_OMM_VERS" version="2.0">
<header><CREATION_DATE/><ORIGINATOR/></header><body><segment><metadata><OBJECT_NAME>KUIPER-00033</OBJECT_NAME><OBJECT_ID>2025-088Y</OBJECT_ID><CENTER_NAME>EARTH</CENTER_NAME><REF_FRAME>TEME</REF_FRAME><TIME_SYSTEM>UTC</TIME_SYSTEM><MEAN_ELEMENT_THEORY>SGP4</MEAN_ELEMENT_THEORY></metadata><data><meanElements><EPOCH>2025-09-30T22:02:41.427456</EPOCH><MEAN_MOTION>14.79867367</MEAN_MOTION><ECCENTRICITY>.00041784</ECCENTRICITY><INCLINATION>51.8986</INCLINATION><RA_OF_ASC_NODE>113.1014</RA_OF_ASC_NODE><ARG_OF_PERICENTER>31.5093</ARG_OF_PERICENTER><MEAN_ANOMALY>328.6119</MEAN_ANOMALY></meanElements><tleParameters><EPHEMERIS_TYPE>0</EPHEMERIS_TYPE><CLASSIFICATION_TYPE>U</CLASSIFICATION_TYPE><NORAD_CAT_ID>63746</NORAD_CAT_ID><ELEMENT_SET_NO>999</ELEMENT_SET_NO><REV_AT_EPOCH>2394</REV_AT_EPOCH><BSTAR>.10498895E-2</BSTAR><MEAN_MOTION_DOT>.7779E-4</MEAN_MOTION_DOT><MEAN_MOTION_DDOT>0</MEAN_MOTION_DDOT></tleParameters></data></segment></body></omm>
<omm id="CCSDS_OMM_VERS" version="2.0">
<header><CREATION_DATE/><ORIGINATOR/></header><body><segment><metadata><OBJECT_NAME>KUIPER-00034</OBJECT_NAME><OBJECT_ID>2025-088Z</OBJECT_ID><CENTER_NAME>EARTH</CENTER_NAME><REF_FRAME>TEME</REF_FRAME><TIME_SYSTEM>UTC</TIME_SYSTEM><MEAN_ELEMENT_THEORY>SGP4</MEAN_ELEMENT_THEORY></metadata><data><meanElements><EPOCH>2025-10-03T00:00:02.999808</EPOCH><MEAN_MOTION>14.81279171</MEAN_MOTION><ECCENTRICITY>.00013764</ECCENTRICITY><INCLINATION>51.9254</INCLINATION><RA_OF_ASC_NODE>66.1781</RA_OF_ASC_NODE><ARG_OF_PERICENTER>297.6307</ARG_OF_PERICENTER><MEAN_ANOMALY>259.9015</MEAN_ANOMALY></meanElements><tleParameters><EPHEMERIS_TYPE>0</EPHEMERIS_TYPE><CLASSIFICATION_TYPE>U</CLASSIFICATION_TYPE><NORAD_CAT_ID>63747</NORAD_CAT_ID><ELEMENT_SET_NO>999</ELEMENT_SET_NO><REV_AT_EPOCH>513</REV_AT_EPOCH><BSTAR>-.13123814E+0</BSTAR><MEAN_MOTION_DOT>-.960152E-2</MEAN_MOTION_DOT><MEAN_MOTION_DDOT>0</MEAN_MOTION_DDOT></tleParameters></data></segment></body></omm>

</ndm>
